HAWK-C                  
1 43799U 18099AT  26068.67261865  .00009431  00000+0  35663-3 0  9994
2 43799  97.4027 122.6817 0040363 277.4052  82.2601 15.26407167398720
STARLINK-32870          
1 63018U 25032P   26068.13048659  .00023260  00000+0  85279-3 0  9994
2 63018  42.9983 339.2818 0000802 299.9578  60.1194 15.27553727 60537
